start=new Date('2022-05-03T00:00:00.000Z').valueOf();
sats=[{"OBJECT_TYPE":"PAYLOAD","NORAD_CAT_ID":"47823","RCS_SIZE":"LARGE","RA_OF_ASC_NODE":"89.5677","DECAY_DATE":null,"REV_AT_EPOCH":"6447","INCLINATION":"53.0546","ELEMENT_SET_NO":"999","MEAN_MOTION":"15.06390668","SITE":"AFETR","MEAN_MOTION_DOT":"0.00000078","APOAPSIS":"548.440","GP_ID":"202522402","TLE_LINE2":"2 47823  53.0546  89.5677 0001730  54.8783 305.2368 15.06390668 64479","SEMIMAJOR_AXIS":"6925.377","PERIOD":"95.593","EPHEMERIS_TYPE":"0","EPOCH":"2022-05-02T07:36:31.200192","MEAN_ELEMENT_THEORY":"SGP4","LAUNCH_DATE":"2021-03-11","MEAN_ANOMALY":"305.2368","OBJECT_NAME":"STARLINK-2408","TLE_LINE1":"1 47823U 21018AN  22122.31702778  .00000078  00000-0  24124-4 0  9992","TIME_SYSTEM":"UTC","PERIAPSIS":"546.044","CENTER_NAME":"EARTH","COUNTRY_CODE":"US","REF_FRAME":"TEME","FILE":"3425830","ARG_OF_PERICENTER":"54.8783","ECCENTRICITY":"0.00017300","OBJECT_ID":"2021-018AN","MEAN_MOTION_DDOT":"0.0000000000000","BSTAR":"0.00002412400000","CLASSIFICATION_TYPE":"U"},{"RA_OF_ASC_NODE":"88.1237","NORAD_CAT_ID":"47824","OBJECT_TYPE":"PAYLOAD","RCS_SIZE":"LARGE","DECAY_DATE":null,"INCLINATION":"53.0539","REV_AT_EPOCH":"6451","ELEMENT_SET_NO":"999","MEAN_MOTION":"15.06404231","MEAN_MOTION_DOT":"0.00008109","SITE":"AFETR","SEMIMAJOR_AXIS":"6925.336","TLE_LINE2":"2 47824  53.0539  88.1237 0001996  54.2375 305.8800 15.06404231 64518","GP_ID":"202556319","PERIOD":"95.592","APOAPSIS":"548.583","LAUNCH_DATE":"2021-03-11","MEAN_ANOMALY":"305.8800","EPOCH":"2022-05-02T15:18:18.156096","EPHEMERIS_TYPE":"0","MEAN_ELEMENT_THEORY":"SGP4","OBJECT_NAME":"STARLINK-2409","TIME_SYSTEM":"UTC","TLE_LINE1":"1 47824U 21018AP  22122.63771014  .00008109  00000-0  56261-3 0  9996","COUNTRY_CODE":"US","REF_FRAME":"TEME","CENTER_NAME":"EARTH","PERIAPSIS":"545.818","ARG_OF_PERICENTER":"54.2375","FILE":"3426306","BSTAR":"0.00056261000000","CLASSIFICATION_TYPE":"U","OBJECT_ID":"2021-018AP","ECCENTRICITY":"0.00019960","MEAN_MOTION_DDOT":"0.0000000000000"},{"CLASSIFICATION_TYPE":"U","BSTAR":"0.00002499900000","MEAN_MOTION_DDOT":"0.0000000000000","OBJECT_ID":"2021-018AQ","ECCENTRICITY":"0.00017860","ARG_OF_PERICENTER":"58.9735","FILE":"3425830","COUNTRY_CODE":"US","CENTER_NAME":"EARTH","REF_FRAME":"TEME","PERIAPSIS":"546.027","TIME_SYSTEM":"UTC","TLE_LINE1":"1 47825U 21018AQ  22122.32440773  .00000091  00000-0  24999-4 0  9994","OBJECT_NAME":"STARLINK-2410","MEAN_ANOMALY":"301.1429","LAUNCH_DATE":"2021-03-11","MEAN_ELEMENT_THEORY":"SGP4","EPOCH":"2022-05-02T07:47:08.827872","EPHEMERIS_TYPE":"0","PERIOD":"95.593","GP_ID":"202520902","TLE_LINE2":"2 47825  53.0552  89.5312 0001786  58.9735 301.1429 15.06383687 64473","SEMIMAJOR_AXIS":"6925.399","APOAPSIS":"548.500","SITE":"AFETR","MEAN_MOTION_DOT":"0.00000091","DECAY_DATE":null,"ELEMENT_SET_NO":"999","REV_AT_EPOCH":"6447","INCLINATION":"53.0552","MEAN_MOTION":"15.06383687","RA_OF_ASC_NODE":"89.5312","RCS_SIZE":"LARGE","NORAD_CAT_ID":"47825","OBJECT_TYPE":"PAYLOAD"},{"RA_OF_ASC_NODE":"90.1477","RCS_SIZE":"LARGE","NORAD_CAT_ID":"47826","OBJECT_TYPE":"PAYLOAD","MEAN_MOTION_DOT":"0.00001118","SITE":"AFETR","DECAY_DATE":null,"ELEMENT_SET_NO":"999","REV_AT_EPOCH":"6445","INCLINATION":"53.0547","MEAN_MOTION":"15.06387141","PERIOD":"95.593","TLE_LINE2":"2 47826  53.0547  90.1477 0002038  37.3907 322.7223 15.06387141 64459","SEMIMAJOR_AXIS":"6925.388","GP_ID":"202521653","APOAPSIS":"548.664","MEAN_ANOMALY":"322.7223","LAUNCH_DATE":"2021-03-11","MEAN_ELEMENT_THEORY":"SGP4","EPOCH":"2022-05-02T04:30:45.260640","EPHEMERIS_TYPE":"0","TIME_SYSTEM":"UTC","TLE_LINE1":"1 47826U 21018AR  22122.18802385  .00001118  00000-0  93962-4 0  9997","OBJECT_NAME":"STARLINK-2411","REF_FRAME":"TEME","COUNTRY_CODE":"US","CENTER_NAME":"EARTH","PERIAPSIS":"545.842","ARG_OF_PERICENTER":"37.3907","FILE":"3425830","CLASSIFICATION_TYPE":"U","BSTAR":"0.00009396200000","MEAN_MOTION_DDOT":"0.0000000000000","OBJECT_ID":"2021-018AR","ECCENTRICITY":"0.00020380"},{"ARG_OF_PERICENTER":"60.7004","FILE":"3425830","CLASSIFICATION_TYPE":"U","BSTAR":"0.00008651800000","MEAN_MOTION_DDOT":"0.0000000000000","ECCENTRICITY":"0.00016260","OBJECT_ID":"2021-018AS","TLE_LINE1":"1 47827U 21018AS  22122.28014804  .00001007  00000-0  86518-4 0  9996","TIME_SYSTEM":"UTC","OBJECT_NAME":"STARLINK-2413","CENTER_NAME":"EARTH","COUNTRY_CODE":"US","REF_FRAME":"TEME","PERIAPSIS":"546.125","PERIOD":"95.593","SEMIMAJOR_AXIS":"6925.386","TLE_LINE2":"2 47827  53.0540  79.7300 0001626  60.7004 299.4147 15.06387912 64665","GP_ID":"202521902","APOAPSIS":"548.377","MEAN_ANOMALY":"299.4147","LAUNCH_DATE":"2021-03-11","MEAN_ELEMENT_THEORY":"SGP4","EPHEMERIS_TYPE":"0","EPOCH":"2022-05-02T06:43:24.790656","RA_OF_ASC_NODE":"79.7300","RCS_SIZE":"LARGE","NORAD_CAT_ID":"47827","OBJECT_TYPE":"PAYLOAD","MEAN_MOTION_DOT":"0.00001007","SITE":"AFETR","DECAY_DATE":null,"REV_AT_EPOCH":"6466","ELEMENT_SET_NO":"999","INCLINATION":"53.0540","MEAN_MOTION":"15.06387912"},{"FILE":"3426306","ARG_OF_PERICENTER":"40.4523","MEAN_MOTION_DDOT":"0.0000000000000","OBJECT_ID":"2021-018AT","ECCENTRICITY":"0.00021920","CLASSIFICATION_TYPE":"U","BSTAR":"0.00003404300000","TLE_LINE1":"1 47828U 21018AT  22122.63678535  .00000225  00000-0  34043-4 0  9990","TIME_SYSTEM":"UTC","OBJECT_NAME":"STARLINK-2415","PERIAPSIS":"545.703","COUNTRY_CODE":"US","REF_FRAME":"TEME","CENTER_NAME":"EARTH","APOAPSIS":"548.739","PERIOD":"95.592","TLE_LINE2":"2 47828  53.0543  98.1313 0002192  40.4523 319.6629 15.06397488 64386","GP_ID":"202556819","SEMIMAJOR_AXIS":"6925.356","MEAN_ELEMENT_THEORY":"SGP4","EPHEMERIS_TYPE":"0","EPOCH":"2022-05-02T15:16:58.254240","MEAN_ANOMALY":"319.6629","LAUNCH_DATE":"2021-03-11","RCS_SIZE":"LARGE","NORAD_CAT_ID":"47828","OBJECT_TYPE":"PAYLOAD","RA_OF_ASC_NODE":"98.1313","SITE":"AFETR","MEAN_MOTION_DOT":"0.00000225","DECAY_DATE":null,"INCLINATION":"53.0543","REV_AT_EPOCH":"6438","ELEMENT_SET_NO":"999","MEAN_MOTION":"15.06397488"},{"TIME_SYSTEM":"UTC","TLE_LINE1":"1 47829U 21018AU  22122.32348811 -.00000465  00000-0 -12320-4 0  9990","OBJECT_NAME":"STARLINK-2416","PERIAPSIS":"545.875","COUNTRY_CODE":"US","REF_FRAME":"TEME","CENTER_NAME":"EARTH","FILE":"3425830","ARG_OF_PERICENTER":"51.4221","MEAN_MOTION_DDOT":"0.0000000000000","OBJECT_ID":"2021-018AU","ECCENTRICITY":"0.00020050","CLASSIFICATION_TYPE":"U","BSTAR":"-0.00001232000000","RCS_SIZE":"MEDIUM","OBJECT_TYPE":"PAYLOAD","NORAD_CAT_ID":"47829","RA_OF_ASC_NODE":"99.5386","SITE":"AFETR","MEAN_MOTION_DOT":"-0.00000465","DECAY_DATE":null,"MEAN_MOTION":"15.06383553","REV_AT_EPOCH":"6432","ELEMENT_SET_NO":"999","INCLINATION":"53.0544","APOAPSIS":"548.653","PERIOD":"95.593","TLE_LINE2":"2 47829  53.0544  99.5386 0002005  51.4221 308.6948 15.06383553 64327","GP_ID":"202521403","SEMIMAJOR_AXIS":"6925.399","MEAN_ELEMENT_THEORY":"SGP4","EPHEMERIS_TYPE":"0","EPOCH":"2022-05-02T07:45:49.372704","MEAN_ANOMALY":"308.6948","LAUNCH_DATE":"2021-03-11"},{"RA_OF_ASC_NODE":"98.0648","RCS_SIZE":"LARGE","NORAD_CAT_ID":"47830","OBJECT_TYPE":"PAYLOAD","SITE":"AFETR","MEAN_MOTION_DOT":"0.00002254","ELEMENT_SET_NO":"999","DECAY_DATE":null,"REV_AT_EPOCH":"6437","MEAN_MOTION":"15.06392715","INCLINATION":"53.0544","PERIOD":"95.593","TLE_LINE2":"2 47830  53.0544  98.0648 0001921  47.6054 312.5098 15.06392715 64376","SEMIMAJOR_AXIS":"6925.371","GP_ID":"202555824","APOAPSIS":"548.566","MEAN_ANOMALY":"312.5098","LAUNCH_DATE":"2021-03-11","MEAN_ELEMENT_THEORY":"SGP4","EPOCH":"2022-05-02T15:38:12.399360","EPHEMERIS_TYPE":"0","TIME_SYSTEM":"UTC","TLE_LINE1":"1 47830U 21018AV  22122.65153240  .00002254  00000-0  17019-3 0  9993","OBJECT_NAME":"STARLINK-2419","COUNTRY_CODE":"US","REF_FRAME":"TEME","CENTER_NAME":"EARTH","PERIAPSIS":"545.906","ARG_OF_PERICENTER":"47.6054","FILE":"3426306","CLASSIFICATION_TYPE":"U","BSTAR":"0.00017019000000","MEAN_MOTION_DDOT":"0.0000000000000","ECCENTRICITY":"0.00019210","OBJECT_ID":"2021-018AV"},{"REV_AT_EPOCH":"6477","DECAY_DATE":null,"INCLINATION":"53.0591","ELEMENT_SET_NO":"999","MEAN_MOTION":"15.06379297","MEAN_MOTION_DOT":"-0.00000582","SITE":"AFETR","RA_OF_ASC_NODE":"73.3578","OBJECT_TYPE":"PAYLOAD","NORAD_CAT_ID":"47831","RCS_SIZE":"LARGE","LAUNCH_DATE":"2021-03-11","MEAN_ANOMALY":"313.0850","EPHEMERIS_TYPE":"0","EPOCH":"2022-05-02T14:03:20.633472","MEAN_ELEMENT_THEORY":"SGP4","GP_ID":"202556074","TLE_LINE2":"2 47831  53.0591  73.3578 0001824  47.0292 313.0850 15.06379297 64773","SEMIMAJOR_AXIS":"6925.412","PERIOD":"95.593","APOAPSIS":"548.540","CENTER_NAME":"EARTH","COUNTRY_CODE":"US","REF_FRAME":"TEME","PERIAPSIS":"546.014","OBJECT_NAME":"STARLINK-2420","TLE_LINE1":"1 47831U 21018AW  22122.58565548 -.00000582  00000-0 -20184-4 0  9996","TIME_SYSTEM":"UTC","BSTAR":"-0.00002018400000","CLASSIFICATION_TYPE":"U","OBJECT_ID":"2021-018AW","ECCENTRICITY":"0.00018240","MEAN_MOTION_DDOT":"0.0000000000000","ARG_OF_PERICENTER":"47.0292","FILE":"3426306"},{"MEAN_MOTION_DOT":"-0.00000059","SITE":"AFETR","ELEMENT_SET_NO":"999","DECAY_DATE":null,"REV_AT_EPOCH":"6447","MEAN_MOTION":"15.06383832","INCLINATION":"53.0544","RA_OF_ASC_NODE":"89.4514","RCS_SIZE":"LARGE","NORAD_CAT_ID":"47832","OBJECT_TYPE":"PAYLOAD","MEAN_ANOMALY":"300.5295","LAUNCH_DATE":"2021-03-11","MEAN_ELEMENT_THEORY":"SGP4","EPOCH":"2022-05-02T08:13:41.160000","EPHEMERIS_TYPE":"0","PERIOD":"95.593","SEMIMAJOR_AXIS":"6925.398","TLE_LINE2":"2 47832  53.0544  89.4514 0001555  59.5847 300.5295 15.06383832 64476","GP_ID":"202521153","APOAPSIS":"548.340","CENTER_NAME":"EARTH","COUNTRY_CODE":"US","REF_FRAME":"TEME","PERIAPSIS":"546.186","TLE_LINE1":"1 47832U 21018AX  22122.34283750 -.00000059  00000-0  14948-4 0  9992","TIME_SYSTEM":"UTC","OBJECT_NAME":"STARLINK-2422","CLASSIFICATION_TYPE":"U","BSTAR":"0.00001494800000","MEAN_MOTION_DDOT":"0.0000000000000","OBJECT_ID":"2021-018AX","ECCENTRICITY":"0.00015550","ARG_OF_PERICENTER":"59.5847","FILE":"3425830"}];
